{
  "type": "FeatureCollection",
  "features": [
    {
      "type": "Feature",
      "properties": {
        "norad_id": 64903,
        "name": "CO3D 1",
        "group": "resource",
        "lat": 31.52492736194792,
        "lon": -105.62103289815349,
        "alt_km": 503.33888668315376,
        "timestamp": "2025-12-19T14:48:35.902501+00:00",
        "meta_object_name": "CO3D 1",
        "meta_object_id": "2025-156E",
        "meta_epoch": "2025-12-19T06:15:43.614144",
        "meta_mean_motion": 15.20208246,
        "meta_eccentricity": 8.472e-05,
        "meta_inclination": 97.4345,
        "meta_ra_of_asc_node": 69.4337,
        "meta_arg_of_pericenter": 76.5971,
        "meta_mean_anomaly": 283.5359,
        "meta_ephemeris_type": 0,
        "meta_classification_type": "U",
        "meta_norad_cat_id": 64903,
        "meta_element_set_no": 999,
        "meta_rev_at_epoch": 2219,
        "meta_bstar": 0.00010355418,
        "meta_mean_motion_dot": 2.175e-05,
        "meta_mean_motion_ddot": 0,
        "tle_line1": "1 64903U 25156E   25353.26092146  .00002175  00000+0  10355-3 0  9990",
        "tle_line2": "2 64903  97.4345  69.4337 0000847  76.5971 283.5359 15.20208246 22191"
      },
      "geometry": {
        "type": "Point",
        "coordinates": [
          -105.62103289815349,
          31.52492736194792
        ]
      }
    },
    {
      "type": "Feature",
      "properties": {
        "norad_id": 66514,
        "name": "SENTINEL-6B",
        "group": "resource",
        "lat": 36.74837160863781,
        "lon": -51.251093639367134,
        "alt_km": 1335.645627672293,
        "timestamp": "2025-12-19T14:48:35.902511+00:00",
        "meta_object_name": "SENTINEL-6B",
        "meta_object_id": "2025-264A",
        "meta_epoch": "2025-12-12T06:01:21.428544",
        "meta_mean_motion": 12.81479578,
        "meta_eccentricity": 0.00078482,
        "meta_inclination": 66.0385,
        "meta_ra_of_asc_node": 163.4531,
        "meta_arg_of_pericenter": 270.1376,
        "meta_mean_anomaly": 89.874,
        "meta_ephemeris_type": 0,
        "meta_classification_type": "U",
        "meta_norad_cat_id": 66514,
        "meta_element_set_no": 999,
        "meta_rev_at_epoch": 322,
        "meta_bstar": 0.00018573353,
        "meta_mean_motion_dot": -1.8e-07,
        "meta_mean_motion_ddot": 0,
        "tle_line1": "1 66514U 25264A   25346.25094246 -.00000018  00000+0  18573-3 0  9999",
        "tle_line2": "2 66514  66.0385 163.4531 0007848 270.1376  89.8740 12.81479578  3223"
      },
      "geometry": {
        "type": "Point",
        "coordinates": [
          -51.251093639367134,
          36.74837160863781
        ]
      }
    }
  ]
}